CCSDS_OMM_VERS = 2.0
CREATION_DATE  = 
ORIGINATOR     = 

OBJECT_NAME    = STARLINK-36840
OBJECT_ID      = 2026-034A
CENTER_NAME    = EARTH
REF_FRAME      = TEME
TIME_SYSTEM    = UTC
MEAN_ELEMENT_THEORY = SGP/SGP4

EPOCH          = 2026-03-21T04:00:00.999936
MEAN_MOTION    = 15.71219599
ECCENTRICITY   = .00009583
INCLINATION    = 53.1590
RA_OF_ASC_NODE = 153.9220
ARG_OF_PERICENTER = 79.6038
MEAN_ANOMALY   = 196.7909

EPHEMERIS_TYPE = 0
CLASSIFICATION_TYPE = U
NORAD_CAT_ID   = 67850
ELEMENT_SET_NO = 999
REV_AT_EPOCH   = 575
BSTAR          = -.16993276E-1
MEAN_MOTION_DOT = -.1942462E-1
MEAN_MOTION_DDOT = 0

CCSDS_OMM_VERS = 2.0
CREATION_DATE  = 
ORIGINATOR     = 

OBJECT_NAME    = STARLINK-36348
OBJECT_ID      = 2026-034B
CENTER_NAME    = EARTH
REF_FRAME      = TEME
TIME_SYSTEM    = UTC
MEAN_ELEMENT_THEORY = SGP/SGP4

EPOCH          = 2026-03-21T04:00:00.999936
MEAN_MOTION    = 15.66989591
ECCENTRICITY   = .00011561
INCLINATION    = 53.1591
RA_OF_ASC_NODE = 153.9999
ARG_OF_PERICENTER = 86.3302
MEAN_ANOMALY   = 151.5767

EPHEMERIS_TYPE = 0
CLASSIFICATION_TYPE = U
NORAD_CAT_ID   = 67851
ELEMENT_SET_NO = 999
REV_AT_EPOCH   = 570
BSTAR          = -.20157297E-1
MEAN_MOTION_DOT = -.1932794E-1
MEAN_MOTION_DDOT = 0

CCSDS_OMM_VERS = 2.0
CREATION_DATE  = 
ORIGINATOR     = 

OBJECT_NAME    = STARLINK-36276
OBJECT_ID      = 2026-034C
CENTER_NAME    = EARTH
REF_FRAME      = TEME
TIME_SYSTEM    = UTC
MEAN_ELEMENT_THEORY = SGP/SGP4

EPOCH          = 2026-03-21T04:00:00.999936
MEAN_MOTION    = 15.65780999
ECCENTRICITY   = .00011621
INCLINATION    = 53.1595
RA_OF_ASC_NODE = 154.0221
ARG_OF_PERICENTER = 81.5465
MEAN_ANOMALY   = 145.5328

EPHEMERIS_TYPE = 0
CLASSIFICATION_TYPE = U
NORAD_CAT_ID   = 67852
ELEMENT_SET_NO = 999
REV_AT_EPOCH   = 570
BSTAR          = -.21246388E-1
MEAN_MOTION_DOT = -.1938588E-1
MEAN_MOTION_DDOT = 0

CCSDS_OMM_VERS = 2.0
CREATION_DATE  = 
ORIGINATOR     = 

OBJECT_NAME    = STARLINK-36785
OBJECT_ID      = 2026-034D
CENTER_NAME    = EARTH
REF_FRAME      = TEME
TIME_SYSTEM    = UTC
MEAN_ELEMENT_THEORY = SGP/SGP4

EPOCH          = 2026-03-20T22:03:41.149728
MEAN_MOTION    = 15.81016369
ECCENTRICITY   = .00031761
INCLINATION    = 53.1574
RA_OF_ASC_NODE = 155.0530
ARG_OF_PERICENTER = 75.6770
MEAN_ANOMALY   = 284.4605

EPHEMERIS_TYPE = 0
CLASSIFICATION_TYPE = U
NORAD_CAT_ID   = 67853
ELEMENT_SET_NO = 999
REV_AT_EPOCH   = 571
BSTAR          = .19541899E-2
MEAN_MOTION_DOT = .406391E-2
MEAN_MOTION_DDOT = 0

CCSDS_OMM_VERS = 2.0
CREATION_DATE  = 
ORIGINATOR     = 

OBJECT_NAME    = STARLINK-36608
OBJECT_ID      = 2026-034E
CENTER_NAME    = EARTH
REF_FRAME      = TEME
TIME_SYSTEM    = UTC
MEAN_ELEMENT_THEORY = SGP/SGP4

EPOCH          = 2026-03-20T14:27:25.117920
MEAN_MOTION    = 15.80966534
ECCENTRICITY   = .0000812
INCLINATION    = 53.1573
RA_OF_ASC_NODE = 156.6317
ARG_OF_PERICENTER = 95.5534
MEAN_ANOMALY   = 264.5581

EPHEMERIS_TYPE = 0
CLASSIFICATION_TYPE = U
NORAD_CAT_ID   = 67854
ELEMENT_SET_NO = 999
REV_AT_EPOCH   = 565
BSTAR          = .13428E-2
MEAN_MOTION_DOT = .274095E-2
MEAN_MOTION_DDOT = 0

CCSDS_OMM_VERS = 2.0
CREATION_DATE  = 
ORIGINATOR     = 

OBJECT_NAME    = STARLINK-36838
OBJECT_ID      = 2026-034F
CENTER_NAME    = EARTH
REF_FRAME      = TEME
TIME_SYSTEM    = UTC
MEAN_ELEMENT_THEORY = SGP/SGP4

EPOCH          = 2026-03-20T22:01:30.411840
MEAN_MOTION    = 15.81036758
ECCENTRICITY   = .00006885
INCLINATION    = 53.1579
RA_OF_ASC_NODE = 155.0426
ARG_OF_PERICENTER = 305.6778
MEAN_ANOMALY   = 54.4181

EPHEMERIS_TYPE = 0
CLASSIFICATION_TYPE = U
NORAD_CAT_ID   = 67855
ELEMENT_SET_NO = 999
REV_AT_EPOCH   = 571
BSTAR          = .14667606E-2
MEAN_MOTION_DOT = .3014E-2
MEAN_MOTION_DDOT = 0

CCSDS_OMM_VERS = 2.0
CREATION_DATE  = 
ORIGINATOR     = 

OBJECT_NAME    = STARLINK-36843
OBJECT_ID      = 2026-034G
CENTER_NAME    = EARTH
REF_FRAME      = TEME
TIME_SYSTEM    = UTC
MEAN_ELEMENT_THEORY = SGP/SGP4

EPOCH          = 2026-03-19T12:36:35.710848
MEAN_MOTION    = 15.80719083
ECCENTRICITY   = .00033435
INCLINATION    = 53.1587
RA_OF_ASC_NODE = 162.0024
ARG_OF_PERICENTER = 124.5278
MEAN_ANOMALY   = 235.6060

EPHEMERIS_TYPE = 0
CLASSIFICATION_TYPE = U
NORAD_CAT_ID   = 67856
ELEMENT_SET_NO = 999
REV_AT_EPOCH   = 549
BSTAR          = -.11055222E-2
MEAN_MOTION_DOT = -.212234E-2
MEAN_MOTION_DDOT = 0

CCSDS_OMM_VERS = 2.0
CREATION_DATE  = 
ORIGINATOR     = 

OBJECT_NAME    = STARLINK-36828
OBJECT_ID      = 2026-034H
CENTER_NAME    = EARTH
REF_FRAME      = TEME
TIME_SYSTEM    = UTC
MEAN_ELEMENT_THEORY = SGP/SGP4

EPOCH          = 2026-03-20T22:00:26.460288
MEAN_MOTION    = 15.81055133
ECCENTRICITY   = .00021258
INCLINATION    = 53.1580
RA_OF_ASC_NODE = 155.0380
ARG_OF_PERICENTER = 64.6698
MEAN_ANOMALY   = 295.4545

EPHEMERIS_TYPE = 0
CLASSIFICATION_TYPE = U
NORAD_CAT_ID   = 67857
ELEMENT_SET_NO = 999
REV_AT_EPOCH   = 571
BSTAR          = .17740899E-2
MEAN_MOTION_DOT = .36785E-2
MEAN_MOTION_DDOT = 0

CCSDS_OMM_VERS = 2.0
CREATION_DATE  = 
ORIGINATOR     = 

OBJECT_NAME    = STARLINK-36837
OBJECT_ID      = 2026-034J
CENTER_NAME    = EARTH
REF_FRAME      = TEME
TIME_SYSTEM    = UTC
MEAN_ELEMENT_THEORY = SGP/SGP4

EPOCH          = 2026-03-21T04:00:00.999936
MEAN_MOTION    = 15.74527336
ECCENTRICITY   = .0000849
INCLINATION    = 53.1589
RA_OF_ASC_NODE = 153.8035
ARG_OF_PERICENTER = 83.7360
MEAN_ANOMALY   = 249.6291

EPHEMERIS_TYPE = 0
CLASSIFICATION_TYPE = U
NORAD_CAT_ID   = 67858
ELEMENT_SET_NO = 999
REV_AT_EPOCH   = 570
BSTAR          = -.14621818E-1
MEAN_MOTION_DOT = -.1891292E-1
MEAN_MOTION_DDOT = 0

CCSDS_OMM_VERS = 2.0
CREATION_DATE  = 
ORIGINATOR     = 

OBJECT_NAME    = STARLINK-36393
OBJECT_ID      = 2026-034K
CENTER_NAME    = EARTH
REF_FRAME      = TEME
TIME_SYSTEM    = UTC
MEAN_ELEMENT_THEORY = SGP/SGP4

EPOCH          = 2026-03-20T21:57:11.896128
MEAN_MOTION    = 15.81029206
ECCENTRICITY   = .0001952
INCLINATION    = 53.1581
RA_OF_ASC_NODE = 155.0220
ARG_OF_PERICENTER = 72.6746
MEAN_ANOMALY   = 287.4490

EPHEMERIS_TYPE = 0
CLASSIFICATION_TYPE = U
NORAD_CAT_ID   = 67859
ELEMENT_SET_NO = 999
REV_AT_EPOCH   = 571
BSTAR          = .14530542E-2
MEAN_MOTION_DOT = .298358E-2
MEAN_MOTION_DDOT = 0

CCSDS_OMM_VERS = 2.0
CREATION_DATE  = 
ORIGINATOR     = 

OBJECT_NAME    = STARLINK-35873
OBJECT_ID      = 2026-034L
CENTER_NAME    = EARTH
REF_FRAME      = TEME
TIME_SYSTEM    = UTC
MEAN_ELEMENT_THEORY = SGP/SGP4

EPOCH          = 2026-03-20T21:56:06.961344
MEAN_MOTION    = 15.80996979
ECCENTRICITY   = .00018687
INCLINATION    = 53.1583
RA_OF_ASC_NODE = 155.0172
ARG_OF_PERICENTER = 75.9549
MEAN_ANOMALY   = 284.1681

EPHEMERIS_TYPE = 0
CLASSIFICATION_TYPE = U
NORAD_CAT_ID   = 67860
ELEMENT_SET_NO = 999
REV_AT_EPOCH   = 574
BSTAR          = .15679808E-2
MEAN_MOTION_DOT = .322441E-2
MEAN_MOTION_DDOT = 0

CCSDS_OMM_VERS = 2.0
CREATION_DATE  = 
ORIGINATOR     = 

OBJECT_NAME    = STARLINK-36325
OBJECT_ID      = 2026-034M
CENTER_NAME    = EARTH
REF_FRAME      = TEME
TIME_SYSTEM    = UTC
MEAN_ELEMENT_THEORY = SGP/SGP4

EPOCH          = 2026-03-21T03:59:10.050720
MEAN_MOTION    = 15.80975059
ECCENTRICITY   = .00010177
INCLINATION    = 53.1579
RA_OF_ASC_NODE = 153.7444
ARG_OF_PERICENTER = 139.0146
MEAN_ANOMALY   = 221.0953

EPHEMERIS_TYPE = 0
CLASSIFICATION_TYPE = U
NORAD_CAT_ID   = 67861
ELEMENT_SET_NO = 999
REV_AT_EPOCH   = 575
BSTAR          = .20144449E-2
MEAN_MOTION_DOT = .418759E-2
MEAN_MOTION_DDOT = 0

