STARLINK-36840          
1 67850U 26034A   26080.16667824 -.01942462  00000+0 -16993-1 0  9995
2 67850  53.1590 153.9220 0000958  79.6038 196.7909 15.71219599  5755
STARLINK-36348          
1 67851U 26034B   26080.16667824 -.01932794  00000+0 -20157-1 0  9990
2 67851  53.1591 153.9999 0001156  86.3302 151.5767 15.66989591  5706
STARLINK-36276          
1 67852U 26034C   26080.16667824 -.01938588  00000+0 -21246-1 0  9998
2 67852  53.1595 154.0221 0001162  81.5465 145.5328 15.65780999  5701
STARLINK-36785          
1 67853U 26034D   26079.91922627  .00406391  00000+0  19542-2 0  9991
2 67853  53.1574 155.0530 0003176  75.6770 284.4605 15.81016369  5716
STARLINK-36608          
1 67854U 26034E   26079.60237405  .00274095  00000+0  13428-2 0  9992
2 67854  53.1573 156.6317 0000812  95.5534 264.5581 15.80966534  5651
STARLINK-36838          
1 67855U 26034F   26079.91771310  .00301400  00000+0  14668-2 0  9993
2 67855  53.1579 155.0426 0000688 305.6778  54.4181 15.81036758  5714
STARLINK-36843          
1 67856U 26034G   26078.52541332 -.00212234  00000+0 -11055-2 0  9994
2 67856  53.1587 162.0024 0003343 124.5278 235.6060 15.80719083  5492
STARLINK-36828          
1 67857U 26034H   26079.91697292  .00367850  00000+0  17741-2 0  9997
2 67857  53.1580 155.0380 0002125  64.6698 295.4545 15.81055133  5717
STARLINK-36837          
1 67858U 26034J   26080.16667824 -.01891292  00000+0 -14622-1 0  9994
2 67858  53.1589 153.8035 0000849  83.7360 249.6291 15.74527336  5708
STARLINK-36393          
1 67859U 26034K   26079.91472102  .00298358  00000+0  14531-2 0  9990
2 67859  53.1581 155.0220 0001952  72.6746 287.4490 15.81029206  5715
STARLINK-35873          
1 67860U 26034L   26079.91396946  .00322441  00000+0  15680-2 0  9990
2 67860  53.1583 155.0172 0001868  75.9549 284.1681 15.80996979  5746
STARLINK-36325          
1 67861U 26034M   26080.16608855  .00418759  00000+0  20144-2 0  9994
2 67861  53.1579 153.7444 0001017 139.0146 221.0953 15.80975059  5759
